NORAD_CAT_ID,OBJECT_NAME,OBJECT_TYPE,EPOCH,MEAN_MOTION,ECCENTRICITY,INCLINATION,RA_OF_ASC_NODE,ARG_OF_PERICENTER,MEAN_ANOMALY,BSTAR,MEAN_MOTION_DOT,MEAN_MOTION_DDOT,TLE_LINE0,TLE_LINE1,TLE_LINE2,SEMIMAJOR_AXIS,PERIOD,APOGEE,PERIGEE,DECAYED
53420.0,STARLINK-4552,PAYLOAD,2023-09-13 07:44:42,15.08846123,0.000146,53.217,231.9383,88.4299,271.6861,0.00014764,2.063e-05,0.0,0 STARLINK-4552,1 53420U 22097AJ  23256.32271798  .00002063  00000-0  14764-3 0  9997,2 53420  53.2170 231.9383 0001460  88.4299 271.6861 15.08846123 61033,6917.862,95.437,540.737,538.717,0.0
53420.0,STARLINK-4552,PAYLOAD,2023-09-13 15:41:39,15.08836731,0.0001389,53.2167,230.4498,92.0897,268.0254,3.7515e-05,3.09e-06,0.0,0 STARLINK-4552,1 53420U 22097AJ  23256.65392645  .00000309  00000-0  37515-4 0  9999,2 53420  53.2167 230.4498 0001389  92.0897 268.0254 15.08836731 61080,6917.89,95.438,540.716,538.794,0.0
53420.0,STARLINK-4552,PAYLOAD,2023-09-14 07:35:30,15.08839816,0.0001405,53.2167,227.4754,99.8738,260.2413,-1.3321e-05,-5e-06,0.0,0 STARLINK-4552,1 53420U 22097AJ  23257.31632775 -.00000500  00000-0 -13321-4 0  9998,2 53420  53.2167 227.4754 0001405  99.8738 260.2413 15.08839816 61649,6917.881,95.438,540.718,538.774,0.0
53420.0,STARLINK-4552,PAYLOAD,2023-09-14 15:32:26,15.08838285,0.0001531,53.2178,225.9882,92.8259,267.2908,-1.8297e-05,-5.79e-06,0.0,0 STARLINK-4552,1 53420U 22097AJ  23257.64752987 -.00000579  00000-0 -18297-4 0  9995,2 53420  53.2178 225.9882 0001531  92.8259 267.2908 15.08838285 61697,6917.886,95.438,540.81,538.692,0.0
53420.0,STARLINK-4552,PAYLOAD,2023-09-15 04:15:31,15.08844946,0.0001364,53.2167,223.6089,100.1732,259.9414,5.5586e-05,5.97e-06,0.0,0 STARLINK-4552,1 53420U 22097AJ  23258.17744362  .00000597  00000-0  55586-4 0  9992,2 53420  53.2167 223.6089 0001364 100.1732 259.9414 15.08844946 61312,6917.865,95.437,540.674,538.787,0.0
53420.0,STARLINK-4552,PAYLOAD,2023-09-16 02:30:55,15.08830596,0.0001238,53.2169,219.4476,103.603,256.51,0.0002391,3.518e-05,0.0,0 STARLINK-4552,1 53420U 22097AJ  23259.10480879  .00003518  00000-0  23910-3 0  9997,2 53420  53.2169 219.4476 0001238 103.6030 256.5100 15.08830596 61452,6917.909,95.438,540.631,538.918,0.0
53420.0,STARLINK-4552,PAYLOAD,2023-09-16 07:17:04,15.08844565,0.0001411,53.2177,218.5567,90.0619,270.0535,9.8561e-05,1.281e-05,0.0,0 STARLINK-4552,1 53420U 22097AJ  23259.30352439  .00001281  00000-0  98561-4 0  9999,2 53420  53.2177 218.5567 0001411  90.0619 270.0535 15.08844565 61484,6917.866,95.437,540.708,538.755,0.0
53420.0,STARLINK-4552,PAYLOAD,2023-09-17 02:21:42,15.08839407,0.0001462,53.2175,214.9851,100.7964,259.3193,1.1992e-05,-9.7e-07,0.0,0 STARLINK-4552,1 53420U 22097AJ  23260.09841112 -.00000097  00000-0  11992-4 0  9996,2 53420  53.2175 214.9851 0001462 100.7964 259.3193 15.08839407 61609,6917.882,95.438,540.759,538.736,0.0
53420.0,STARLINK-4552,PAYLOAD,2023-09-17 05:32:28,15.088429,0.0001331,53.2172,214.3918,97.451,262.6634,3.8154e-05,3.19e-06,0.0,0 STARLINK-4552,1 53420U 22097AJ  23260.23088776  .00000319  00000-0  38154-4 0  9996,2 53420  53.2172 214.3918 0001331  97.4510 262.6634 15.08842900 62080,6917.872,95.437,540.657,538.816,0.0
53420.0,STARLINK-4552,PAYLOAD,2023-09-18 03:47:52,15.08843763,0.0001381,53.2177,210.2312,99.3371,260.7777,6.2692e-05,7.1e-06,0.0,0 STARLINK-4552,1 53420U 22097AJ  23261.15824694  .00000710  00000-0  62692-4 0  9994,2 53420  53.2177 210.2312 0001381  99.3371 260.7777 15.08843763 61768,6917.869,95.437,540.689,538.779,0.0
53420.0,STARLINK-4552,PAYLOAD,2023-09-18 06:58:38,15.08847684,0.0001307,53.2177,209.6352,92.2365,267.8777,5.6676e-05,6.14e-06,0.0,0 STARLINK-4552,1 53420U 22097AJ  23261.29072451  .00000614  00000-0  56676-4 0  9993,2 53420  53.2177 209.6352 0001307  92.2365 267.8777 15.08847684 62245,6917.857,95.437,540.626,538.818,0.0
53420.0,STARLINK-4552,PAYLOAD,2023-09-19 06:49:24,15.08856277,0.000132,53.2176,205.1748,92.768,267.3463,0.00018635,2.68e-05,0.0,0 STARLINK-4552,1 53420U 22097AJ  23262.28431595  .00002680  00000-0  18635-3 0  9998,2 53420  53.2176 205.1748 0001320  92.7680 267.3463 15.08856277 61934,6917.831,95.437,540.609,538.782,0.0
53420.0,STARLINK-4552,PAYLOAD,2023-09-20 05:04:49,15.08851579,0.0001363,53.218,201.0115,92.3575,267.7574,7.7828e-05,9.51e-06,0.0,0 STARLINK-4552,1 53420U 22097AJ  23263.21168044  .00000951  00000-0  77828-4 0  9997,2 53420  53.2180 201.0115 0001363  92.3575 267.7574 15.08851579 62071,6917.845,95.437,540.653,538.767,0.0
53420.0,STARLINK-4552,PAYLOAD,2023-09-20 13:01:46,15.08830186,0.0001818,53.2179,199.5242,86.807,273.313,-6.521e-05,-1.326e-05,0.0,0 STARLINK-4552,1 53420U 22097AJ  23263.54289965 -.00001326  00000-0 -65210-4 0  9990,2 53420  53.2179 199.5242 0001818  86.8070 273.3130 15.08830186 62582,6917.91,95.438,541.033,538.518,0.0
53420.0,STARLINK-4552,PAYLOAD,2023-09-20 19:23:19,15.08827434,0.0001779,53.2168,198.3378,93.6068,266.5127,-5.7264e-06,-3.79e-06,0.0,0 STARLINK-4552,1 53420U 22097AJ  23263.80786158 -.00000379  00000-0 -57264-5 0  9993,2 53420  53.2168 198.3378 0001779  93.6068 266.5127 15.08827434 62162,6917.919,95.438,541.014,538.553,0.0
53420.0,STARLINK-4552,PAYLOAD,2023-09-21 04:55:38,15.08834526,0.00014,53.2174,196.5512,91.4633,268.652,-0.00012937,-2.346e-05,0.0,0 STARLINK-4552,1 53420U 22097AJ  23264.20530257 -.00002346  00000-0 -12937-3 0  9997,2 53420  53.2174 196.5512 0001400  91.4633 268.6520 15.08834526 62681,6917.897,95.438,540.731,538.794,0.0
53420.0,STARLINK-4552,PAYLOAD,2023-09-22 01:35:37,15.08849564,0.0001444,53.218,192.6853,93.0971,267.0187,0.00010352,1.36e-05,0.0,0 STARLINK-4552,1 53420U 22097AJ  23265.06641077  .00001360  00000-0  10352-3 0  9997,2 53420  53.2180 192.6853 0001444  93.0971 267.0187 15.08849564 62358,6917.851,95.437,540.715,538.717,0.0
53420.0,STARLINK-4552,PAYLOAD,2023-09-23 01:26:25,15.08845999,0.0001513,53.2167,188.2232,96.6223,263.4941,0.00028379,4.232e-05,0.0,0 STARLINK-4552,1 53420U 22097AJ  23266.06001701  .00004232  00000-0  28379-3 0  9991,2 53420  53.2167 188.2232 0001513  96.6223 263.4941 15.08845999 62504,6917.862,95.437,540.774,538.68,0.0
53420.0,STARLINK-4552,PAYLOAD,2023-09-23 04:37:11,15.08848817,0.0001479,53.2166,187.6278,96.3202,263.7958,0.00029179,4.36e-05,0.0,0 STARLINK-4552,1 53420U 22097AJ  23266.19249518  .00004360  00000-0  29179-3 0  9996,2 53420  53.2166 187.6278 0001479  96.3202 263.7958 15.08848817 62986,6917.853,95.437,540.742,538.695,0.0
53420.0,STARLINK-4552,PAYLOAD,2023-09-24 04:27:58,15.08846759,0.0001421,53.2171,183.1672,91.4291,268.6864,8.2615e-05,1.027e-05,0.0,0 STARLINK-4552,1 53420U 22097AJ  23267.18609371  .00001027  00000-0  82615-4 0  9995,2 53420  53.2171 183.1672 0001421  91.4291 268.6864 15.08846759 62671,6917.86,95.437,540.708,538.742,0.0
53420.0,STARLINK-4552,PAYLOAD,2023-09-24 21:57:13,15.08838718,0.0001563,53.2163,179.8945,110.1081,250.008,-4.4897e-05,-1.002e-05,0.0,0 STARLINK-4552,1 53420U 22097AJ  23267.91473666 -.00001002  00000-0 -44897-4 0  9997,2 53420  53.2163 179.8945 0001563 110.1081 250.0080 15.08838718 63245,6917.884,95.438,540.831,538.668,0.0
53420.0,STARLINK-4552,PAYLOAD,2023-09-24 23:32:36,15.08839418,0.0001344,53.2167,179.598,96.8926,263.2219,-3.0334e-05,-7.71e-06,0.0,0 STARLINK-4552,1 53420U 22097AJ  23267.98097709 -.00000771  00000-0 -30334-4 0  9997,2 53420  53.2167 179.5980 0001344  96.8926 263.2219 15.08839418 62797,6917.882,95.438,540.677,538.817,0.0
53420.0,STARLINK-4552,PAYLOAD,2023-09-25 04:18:45,15.08846323,0.0001386,53.2172,178.7081,90.3789,269.7362,6.9304e-05,8.15e-06,0.0,0 STARLINK-4552,1 53420U 22097AJ  23268.17969409  .00000815  00000-0  69304-4 0  9990,2 53420  53.2172 178.7081 0001386  90.3789 269.7362 15.08846323 62825,6917.861,95.437,540.685,538.767,0.0
53420.0,STARLINK-4552,PAYLOAD,2023-09-25 10:40:18,15.08846178,0.0001397,53.2177,177.5187,91.5253,268.5899,7.6557e-05,9.31e-06,0.0,0 STARLINK-4552,1 53420U 22097AJ  23268.44465366  .00000931  00000-0  76557-4 0  9990,2 53420  53.2177 177.5187 0001397  91.5253 268.5899 15.08846178 63321,6917.862,95.437,540.693,538.76,0.0
53420.0,STARLINK-4552,PAYLOAD,2023-09-25 21:47:59,15.08854293,0.0001101,53.2165,175.4372,79.1142,280.9974,0.00018309,2.628e-05,0.0,0 STARLINK-4552,1 53420U 22097AJ  23268.90832923  .00002628  00000-0  18309-3 0  9993,2 53420  53.2165 175.4372 0001101  79.1142 280.9974 15.08854293 63399,6917.837,95.437,540.463,538.94,0.0
53420.0,STARLINK-4552,PAYLOAD,2023-09-25 23:23:22,15.08856598,0.0001177,53.2168,175.1397,82.9372,277.1754,0.00029888,4.474e-05,0.0,0 STARLINK-4552,1 53420U 22097AJ  23268.97456896  .00004474  00000-0  29888-3 0  9996,2 53420  53.2168 175.1397 0001177  82.9372 277.1754 15.08856598 62940,6917.83,95.437,540.509,538.88,0.0
53420.0,STARLINK-4552,PAYLOAD,2023-09-26 21:38:47,15.08837563,0.0001061,53.2164,170.977,90.6287,269.4827,-6.4478e-05,-1.314e-05,0.0,0 STARLINK-4552,1 53420U 22097AJ  23269.90193659 -.00001314  00000-0 -64478-4 0  9992,2 53420  53.2164 170.9770 0001061  90.6287 269.4827 15.08837563 63540,6917.888,95.438,540.487,539.019,0.0
53420.0,STARLINK-4552,PAYLOAD,2023-09-27 04:00:20,15.08831116,0.0001279,53.2165,169.7882,88.1815,271.9323,-0.00015227,-2.71e-05,0.0,0 STARLINK-4552,1 53420U 22097AJ  23270.16690034 -.00002710  00000-0 -15227-3 0  9999,2 53420  53.2165 169.7882 0001279  88.1815 271.9323 15.08831116 63122,6917.908,95.438,540.657,538.888,0.0
53420.0,STARLINK-4552,PAYLOAD,2023-09-27 10:21:53,15.08826366,0.0001266,53.2165,168.5981,85.0575,275.0562,-0.00016778,-2.956e-05,0.0,0 STARLINK-4552,1 53420U 22097AJ  23270.43186657 -.00002956  00000-0 -16778-3 0  9994,2 53420  53.2165 168.5981 0001266  85.0575 275.0562 15.08826366 63620,6917.922,95.438,540.663,538.911,0.0
53420.0,STARLINK-4552,PAYLOAD,2023-09-28 00:40:22,15.08804239,0.0001714,53.2171,165.9215,93.8808,266.238,0.00082664,0.0001288,0.0,0 STARLINK-4552,1 53420U 22097AJ  23271.02804273  .00012880  00000-0  82664-3 0  9993,2 53420  53.2171 165.9215 0001714  93.8808 266.2380 15.08804239 63256,6917.99,95.44,541.04,538.669,0.0
